STARLINK-31982          
1 60022U 24111G   26068.39675336 -.00001912  00000+0 -52451-4 0  9998
2 60022  53.1610  76.6335 0001312 104.9475 255.1672 15.30197424 99007
FLOCK 4G-5              
1 62663U 25009BG  26068.45638436  .00011278  00000+0  40688-3 0  9997
2 62663  97.4058 151.2478 0002094 314.5072  45.5996 15.28679529 63699
